start=new Date('2022-05-19T00:00:00.000Z').valueOf();
sats=[{"APOAPSIS":"548.451","LAUNCH_DATE":"2021-05-04","SEMIMAJOR_AXIS":"6925.365","REF_FRAME":"TEME","PERIAPSIS":"546.009","MEAN_MOTION_DOT":"0.00000313","GP_ID":"203905210","OBJECT_TYPE":"PAYLOAD","SITE":"AFETR","ELEMENT_SET_NO":"999","MEAN_MOTION":"15.06394763","NORAD_CAT_ID":"48364","RCS_SIZE":"LARGE","TIME_SYSTEM":"UTC","REV_AT_EPOCH":"5743","MEAN_ELEMENT_THEORY":"SGP4","FILE":"3452356","CENTER_NAME":"EARTH","OBJECT_NAME":"STARLINK-2611","DECAY_DATE":null,"MEAN_MOTION_DDOT":"0.0000000000000","TLE_LINE2":"2 48364  53.0532 121.2490 0001763  60.1042 300.0122 15.06394763 57435","ARG_OF_PERICENTER":"60.1042","RA_OF_ASC_NODE":"121.2490","EPOCH":"2022-05-18T15:33:08.605728","ECCENTRICITY":"0.00017630","MEAN_ANOMALY":"300.0122","PERIOD":"95.592","TLE_LINE1":"1 48364U 21038M   22138.64801627  .00000313  00000-0  39929-4 0  9992","COUNTRY_CODE":"US","EPHEMERIS_TYPE":"0","BSTAR":"0.00003992900000","INCLINATION":"53.0532","OBJECT_ID":"2021-038M","CLASSIFICATION_TYPE":"U"},{"TLE_LINE2":"2 48365  53.0540 118.9718 0002035  51.7468 308.3703 15.06401281 58107","MEAN_MOTION_DDOT":"0.0000000000000","OBJECT_NAME":"STARLINK-2608","DECAY_DATE":null,"EPOCH":"2022-05-19T03:46:58.504512","ECCENTRICITY":"0.00020350","ARG_OF_PERICENTER":"51.7468","RA_OF_ASC_NODE":"118.9718","EPHEMERIS_TYPE":"0","MEAN_ANOMALY":"308.3703","PERIOD":"95.592","TLE_LINE1":"1 48365U 21038N   22139.15762158  .00002379  00000-0  17854-3 0  9991","COUNTRY_CODE":"US","INCLINATION":"53.0540","OBJECT_ID":"2021-038N","CLASSIFICATION_TYPE":"U","BSTAR":"0.00017854000000","PERIAPSIS":"545.800","MEAN_MOTION_DOT":"0.00002379","GP_ID":"203914517","APOAPSIS":"548.619","LAUNCH_DATE":"2021-05-04","SEMIMAJOR_AXIS":"6925.345","REF_FRAME":"TEME","ELEMENT_SET_NO":"999","MEAN_MOTION":"15.06401281","OBJECT_TYPE":"PAYLOAD","SITE":"AFETR","REV_AT_EPOCH":"5810","NORAD_CAT_ID":"48365","RCS_SIZE":"LARGE","TIME_SYSTEM":"UTC","CENTER_NAME":"EARTH","MEAN_ELEMENT_THEORY":"SGP4","FILE":"3452637"},{"ARG_OF_PERICENTER":"69.2498","RA_OF_ASC_NODE":"117.5917","EPOCH":"2022-05-18T08:22:34.698144","ECCENTRICITY":"0.00020540","OBJECT_NAME":"STARLINK-2631","DECAY_DATE":null,"TLE_LINE2":"2 48366  53.0558 117.5917 0002054  69.2498 290.8711 15.06406816 58047","MEAN_MOTION_DDOT":"0.0000000000000","BSTAR":"-0.00000401160000","INCLINATION":"53.0558","OBJECT_ID":"2021-038P","CLASSIFICATION_TYPE":"U","MEAN_ANOMALY":"290.8711","TLE_LINE1":"1 48366U 21038P   22138.34901271 -.00000342  00000-0 -40116-5 0  9992","PERIOD":"95.592","COUNTRY_CODE":"US","EPHEMERIS_TYPE":"0","OBJECT_TYPE":"PAYLOAD","SITE":"AFETR","ELEMENT_SET_NO":"999","MEAN_MOTION":"15.06406816","LAUNCH_DATE":"2021-05-04","APOAPSIS":"548.615","SEMIMAJOR_AXIS":"6925.328","REF_FRAME":"TEME","PERIAPSIS":"545.770","MEAN_MOTION_DOT":"-0.00000342","GP_ID":"203879283","MEAN_ELEMENT_THEORY":"SGP4","FILE":"3452165","CENTER_NAME":"EARTH","NORAD_CAT_ID":"48366","RCS_SIZE":"LARGE","TIME_SYSTEM":"UTC","REV_AT_EPOCH":"5804"},{"MEAN_ANOMALY":"302.2733","COUNTRY_CODE":"US","PERIOD":"95.592","TLE_LINE1":"1 48367U 21038Q   22139.20783746  .00000662  00000-0  63362-4 0  9994","EPHEMERIS_TYPE":"0","BSTAR":"0.00006336200000","INCLINATION":"53.0564","CLASSIFICATION_TYPE":"U","OBJECT_ID":"2021-038Q","DECAY_DATE":null,"OBJECT_NAME":"STARLINK-2643","MEAN_MOTION_DDOT":"0.0000000000000","TLE_LINE2":"2 48367  53.0564 113.7472 0002021  57.8452 302.2733 15.06398847 58176","ARG_OF_PERICENTER":"57.8452","RA_OF_ASC_NODE":"113.7472","EPOCH":"2022-05-19T04:59:17.156544","ECCENTRICITY":"0.00020210","NORAD_CAT_ID":"48367","TIME_SYSTEM":"UTC","RCS_SIZE":"LARGE","REV_AT_EPOCH":"5817","MEAN_ELEMENT_THEORY":"SGP4","FILE":"3452617","CENTER_NAME":"EARTH","APOAPSIS":"548.617","LAUNCH_DATE":"2021-05-04","REF_FRAME":"TEME","SEMIMAJOR_AXIS":"6925.352","GP_ID":"203915036","PERIAPSIS":"545.817","MEAN_MOTION_DOT":"0.00000662","OBJECT_TYPE":"PAYLOAD","SITE":"AFETR","ELEMENT_SET_NO":"999","MEAN_MOTION":"15.06398847"},{"CENTER_NAME":"EARTH","MEAN_ELEMENT_THEORY":"SGP4","FILE":"3452447","REV_AT_EPOCH":"5817","NORAD_CAT_ID":"48368","TIME_SYSTEM":"UTC","RCS_SIZE":"LARGE","ELEMENT_SET_NO":"999","MEAN_MOTION":"15.06394346","OBJECT_TYPE":"PAYLOAD","SITE":"AFETR","GP_ID":"203909874","PERIAPSIS":"545.691","MEAN_MOTION_DOT":"-0.00000227","APOAPSIS":"548.770","LAUNCH_DATE":"2021-05-04","REF_FRAME":"TEME","SEMIMAJOR_AXIS":"6925.366","INCLINATION":"53.0559","CLASSIFICATION_TYPE":"U","OBJECT_ID":"2021-038R","BSTAR":"0.00000365710000","EPHEMERIS_TYPE":"0","MEAN_ANOMALY":"312.4038","COUNTRY_CODE":"US","PERIOD":"95.592","TLE_LINE1":"1 48368U 21038R   22139.15898480 -.00000227  00000-0  36571-5 0  9992","EPOCH":"2022-05-19T03:48:56.286720","ECCENTRICITY":"0.00022230","ARG_OF_PERICENTER":"47.7139","RA_OF_ASC_NODE":"113.9483","MEAN_MOTION_DDOT":"0.0000000000000","TLE_LINE2":"2 48368  53.0559 113.9483 0002223  47.7139 312.4038 15.06394346 58170","DECAY_DATE":null,"OBJECT_NAME":"STARLINK-2623"},{"CLASSIFICATION_TYPE":"U","OBJECT_ID":"2021-038S","INCLINATION":"53.0572","BSTAR":"0.00006910700000","EPHEMERIS_TYPE":"0","COUNTRY_CODE":"US","TLE_LINE1":"1 48369U 21038S   22139.20415221  .00000748  00000-0  69107-4 0  9994","PERIOD":"95.592","MEAN_ANOMALY":"301.9910","ECCENTRICITY":"0.00023870","EPOCH":"2022-05-19T04:53:58.750944","RA_OF_ASC_NODE":"113.7533","ARG_OF_PERICENTER":"58.1312","TLE_LINE2":"2 48369  53.0572 113.7533 0002387  58.1312 301.9910 15.06400914 58171","MEAN_MOTION_DDOT":"0.0000000000000","DECAY_DATE":null,"OBJECT_NAME":"STARLINK-2641","CENTER_NAME":"EARTH","FILE":"3452638","MEAN_ELEMENT_THEORY":"SGP4","REV_AT_EPOCH":"5817","TIME_SYSTEM":"UTC","RCS_SIZE":"LARGE","NORAD_CAT_ID":"48369","MEAN_MOTION":"15.06400914","ELEMENT_SET_NO":"999","SITE":"AFETR","OBJECT_TYPE":"PAYLOAD","GP_ID":"203915072","MEAN_MOTION_DOT":"0.00000748","PERIAPSIS":"545.558","REF_FRAME":"TEME","SEMIMAJOR_AXIS":"6925.346","APOAPSIS":"548.864","LAUNCH_DATE":"2021-05-04"},{"OBJECT_NAME":"STARLINK-2621","DECAY_DATE":null,"TLE_LINE2":"2 48370  53.0560 113.7716 0002181  46.2111 313.9058 15.06398233 58176","MEAN_MOTION_DDOT":"0.0000000000000","ARG_OF_PERICENTER":"46.2111","RA_OF_ASC_NODE":"113.7716","EPOCH":"2022-05-19T04:48:40.588992","ECCENTRICITY":"0.00021810","MEAN_ANOMALY":"313.9058","PERIOD":"95.592","TLE_LINE1":"1 48370U 21038T   22139.20046978  .00000568  00000-0  57067-4 0  9997","COUNTRY_CODE":"US","EPHEMERIS_TYPE":"0","BSTAR":"0.00005706700000","INCLINATION":"53.0560","OBJECT_ID":"2021-038T","CLASSIFICATION_TYPE":"U","APOAPSIS":"548.729","LAUNCH_DATE":"2021-05-04","SEMIMAJOR_AXIS":"6925.354","REF_FRAME":"TEME","MEAN_MOTION_DOT":"0.00000568","PERIAPSIS":"545.709","GP_ID":"203914594","OBJECT_TYPE":"PAYLOAD","SITE":"AFETR","ELEMENT_SET_NO":"999","MEAN_MOTION":"15.06398233","NORAD_CAT_ID":"48370","RCS_SIZE":"LARGE","TIME_SYSTEM":"UTC","REV_AT_EPOCH":"5817","MEAN_ELEMENT_THEORY":"SGP4","FILE":"3452621","CENTER_NAME":"EARTH"},{"BSTAR":"0.00005114400000","INCLINATION":"53.0548","CLASSIFICATION_TYPE":"U","OBJECT_ID":"2021-038U","MEAN_ANOMALY":"308.3056","COUNTRY_CODE":"US","TLE_LINE1":"1 48371U 21038U   22139.19677899  .00000480  00000-0  51144-4 0  9991","PERIOD":"95.592","EPHEMERIS_TYPE":"0","ARG_OF_PERICENTER":"51.8122","RA_OF_ASC_NODE":"113.7958","EPOCH":"2022-05-19T04:43:21.704736","ECCENTRICITY":"0.00021040","DECAY_DATE":null,"OBJECT_NAME":"STARLINK-2589","TLE_LINE2":"2 48371  53.0548 113.7958 0002104  51.8122 308.3056 15.06400330 58178","MEAN_MOTION_DDOT":"0.0000000000000","MEAN_ELEMENT_THEORY":"SGP4","FILE":"3452621","CENTER_NAME":"EARTH","NORAD_CAT_ID":"48371","TIME_SYSTEM":"UTC","RCS_SIZE":"LARGE","REV_AT_EPOCH":"5817","OBJECT_TYPE":"PAYLOAD","SITE":"AFETR","ELEMENT_SET_NO":"999","MEAN_MOTION":"15.06400330","LAUNCH_DATE":"2021-05-04","APOAPSIS":"548.670","REF_FRAME":"TEME","SEMIMAJOR_AXIS":"6925.348","GP_ID":"203915087","PERIAPSIS":"545.755","MEAN_MOTION_DOT":"0.00000480"},{"MEAN_ELEMENT_THEORY":"SGP4","FILE":"3452356","CENTER_NAME":"EARTH","NORAD_CAT_ID":"48372","TIME_SYSTEM":"UTC","RCS_SIZE":"LARGE","REV_AT_EPOCH":"5750","OBJECT_TYPE":"PAYLOAD","SITE":"AFETR","ELEMENT_SET_NO":"999","MEAN_MOTION":"15.06407685","LAUNCH_DATE":"2021-05-04","APOAPSIS":"548.839","REF_FRAME":"TEME","SEMIMAJOR_AXIS":"6925.325","GP_ID":"203905211","PERIAPSIS":"545.541","MEAN_MOTION_DOT":"0.00001646","BSTAR":"0.00012940000000","INCLINATION":"53.0544","CLASSIFICATION_TYPE":"U","OBJECT_ID":"2021-038V","MEAN_ANOMALY":"316.2348","COUNTRY_CODE":"US","PERIOD":"95.592","TLE_LINE1":"1 48372U 21038V   22138.66232152  .00001646  00000-0  12940-3 0  9997","EPHEMERIS_TYPE":"0","ARG_OF_PERICENTER":"43.8829","RA_OF_ASC_NODE":"116.1930","EPOCH":"2022-05-18T15:53:44.579328","ECCENTRICITY":"0.00023810","DECAY_DATE":null,"OBJECT_NAME":"STARLINK-2572","TLE_LINE2":"2 48372  53.0544 116.1930 0002381  43.8829 316.2348 15.06407685 57502","MEAN_MOTION_DDOT":"0.0000000000000"},{"GP_ID":"203914678","PERIAPSIS":"546.025","MEAN_MOTION_DOT":"0.00000542","LAUNCH_DATE":"2021-05-04","APOAPSIS":"548.406","REF_FRAME":"TEME","SEMIMAJOR_AXIS":"6925.351","ELEMENT_SET_NO":"999","MEAN_MOTION":"15.06399266","OBJECT_TYPE":"PAYLOAD","SITE":"AFETR","REV_AT_EPOCH":"5817","NORAD_CAT_ID":"48373","TIME_SYSTEM":"UTC","RCS_SIZE":"LARGE","CENTER_NAME":"EARTH","MEAN_ELEMENT_THEORY":"SGP4","FILE":"3452627","MEAN_MOTION_DDOT":"0.0000000000000","TLE_LINE2":"2 48373  53.0529 113.8236 0001719  61.8061 298.3102 15.06399266 58178","DECAY_DATE":null,"OBJECT_NAME":"STARLINK-2609","EPOCH":"2022-05-19T04:32:44.953152","ECCENTRICITY":"0.00017190","ARG_OF_PERICENTER":"61.8061","RA_OF_ASC_NODE":"113.8236","EPHEMERIS_TYPE":"0","MEAN_ANOMALY":"298.3102","COUNTRY_CODE":"US","TLE_LINE1":"1 48373U 21038W   22139.18940918  .00000542  00000-0  55316-4 0  9991","PERIOD":"95.592","INCLINATION":"53.0529","CLASSIFICATION_TYPE":"U","OBJECT_ID":"2021-038W","BSTAR":"0.00005531600000"}];
